{
  "norad_id": 39155,
  "name": "COSMOS 2485 [GLONASS-M]",
  "history": [
    {
      "epoch": "2026-03-28T04:44:19.319712Z",
      "apogee_km": 19193.946187639685,
      "perigee_km": 19065.68455074168,
      "latitude_deg": 1.3608143708354815e-06,
      "longitude_deg": 179.60713707156384,
      "height_km": 19164.433391550167,
      "semi_major_axis_km": 25507.95236919068,
      "eccentricity": 0.00251415,
      "inclination_deg": 65.375,
      "raan_deg": 76.3211,
      "arg_perigee_deg": 237.7712,
      "mean_anomaly_deg": 121.9957,
      "mean_motion_rev_day": 2.13102903
    }
  ]
}